[{"OBJECT_NAME":"ONEWEB-0248","OBJECT_ID":"2021-045AH","EPOCH":"2025-12-06T14:40:21.125568","MEAN_MOTION":13.15549564,"ECCENTRICITY":0.00021953,"INCLINATION":87.8995,"RA_OF_ASC_NODE":297.6059,"ARG_OF_PERICENTER":65.8508,"MEAN_ANOMALY":294.2852,"EPHEMERIS_TYPE":0,"CLASSIFICATION_TYPE":"U","NORAD_CAT_ID":48798,"ELEMENT_SET_NO":999,"REV_AT_EPOCH":21909,"BSTAR":-0.0001422423,"MEAN_MOTION_DOT":-4.1e-7,"MEAN_MOTION_DDOT":0},{"OBJECT_NAME":"ONEWEB-0225","OBJECT_ID":"2021-045AJ","EPOCH":"2025-12-06T15:12:18.132480","MEAN_MOTION":13.15549773,"ECCENTRICITY":0.0002369,"INCLINATION":87.8983,"RA_OF_ASC_NODE":297.6261,"ARG_OF_PERICENTER":73.6386,"MEAN_ANOMALY":286.5005,"EPHEMERIS_TYPE":0,"CLASSIFICATION_TYPE":"U","NORAD_CAT_ID":48799,"ELEMENT_SET_NO":999,"REV_AT_EPOCH":21910,"BSTAR":0.00030311406,"MEAN_MOTION_DOT":1.27e-6,"MEAN_MOTION_DDOT":0},{"OBJECT_NAME":"ONEWEB-0215","OBJECT_ID":"2021-045AK","EPOCH":"2025-12-06T14:28:56.988768","MEAN_MOTION":13.15550096,"ECCENTRICITY":0.0002413,"INCLINATION":87.9001,"RA_OF_ASC_NODE":297.5921,"ARG_OF_PERICENTER":69.3196,"MEAN_ANOMALY":290.8193,"EPHEMERIS_TYPE":0,"CLASSIFICATION_TYPE":"U","NORAD_CAT_ID":48800,"ELEMENT_SET_NO":999,"REV_AT_EPOCH":21897,"BSTAR":1.214964e-6,"MEAN_MOTION_DOT":1.3e-7,"MEAN_MOTION_DDOT":0},{"OBJECT_NAME":"ONEWEB-0216","OBJECT_ID":"2021-045AL","EPOCH":"2025-12-06T14:42:38.698560","MEAN_MOTION":13.15548382,"ECCENTRICITY":0.00019954,"INCLINATION":87.8984,"RA_OF_ASC_NODE":297.6219,"ARG_OF_PERICENTER":84.3696,"MEAN_ANOMALY":275.7661,"EPHEMERIS_TYPE":0,"CLASSIFICATION_TYPE":"U","NORAD_CAT_ID":48801,"ELEMENT_SET_NO":999,"REV_AT_EPOCH":21898,"BSTAR":-5.5128333e-5,"MEAN_MOTION_DOT":-8.0e-8,"MEAN_MOTION_DDOT":0},{"OBJECT_NAME":"ONEWEB-0239","OBJECT_ID":"2021-045AM","EPOCH":"2025-12-06T14:49:28.677792","MEAN_MOTION":13.15549794,"ECCENTRICITY":0.0002346,"INCLINATION":87.8983,"RA_OF_ASC_NODE":297.6355,"ARG_OF_PERICENTER":62.5386,"MEAN_ANOMALY":297.5983,"EPHEMERIS_TYPE":0,"CLASSIFICATION_TYPE":"U","NORAD_CAT_ID":48802,"ELEMENT_SET_NO":999,"REV_AT_EPOCH":21902,"BSTAR":-9.6013411e-5,"MEAN_MOTION_DOT":-2.3e-7,"MEAN_MOTION_DDOT":0},{"OBJECT_NAME":"ONEWEB-0249","OBJECT_ID":"2021-060A","EPOCH":"2025-12-06T13:14:35.857824","MEAN_MOTION":13.16594988,"ECCENTRICITY":0.00018588,"INCLINATION":87.9038,"RA_OF_ASC_NODE":267.1369,"ARG_OF_PERICENTER":72.399,"MEAN_ANOMALY":287.7343,"EPHEMERIS_TYPE":0,"CLASSIFICATION_TYPE":"U","NORAD_CAT_ID":48967,"ELEMENT_SET_NO":999,"REV_AT_EPOCH":21426,"BSTAR":0.0002553316,"MEAN_MOTION_DOT":1.1e-6,"MEAN_MOTION_DDOT":0},{"OBJECT_NAME":"ONEWEB-0250","OBJECT_ID":"2021-060B","EPOCH":"2025-12-06T13:29:13.190208","MEAN_MOTION":13.25819549,"ECCENTRICITY":0.00016688,"INCLINATION":87.904,"RA_OF_ASC_NODE":265.5212,"ARG_OF_PERICENTER":38.5451,"MEAN_ANOMALY":321.5804,"EPHEMERIS_TYPE":0,"CLASSIFICATION_TYPE":"U","NORAD_CAT_ID":48968,"ELEMENT_SET_NO":999,"REV_AT_EPOCH":21469,"BSTAR":5.902808e-5,"MEAN_MOTION_DOT":3.9e-7,"MEAN_MOTION_DDOT":0},{"OBJECT_NAME":"ONEWEB-0252","OBJECT_ID":"2021-060D","EPOCH":"2025-12-06T04:52:59.877984","MEAN_MOTION":13.16592798,"ECCENTRICITY":0.00019273,"INCLINATION":87.904,"RA_OF_ASC_NODE":267.1996,"ARG_OF_PERICENTER":81.1259,"MEAN_ANOMALY":279.009,"EPHEMERIS_TYPE":0,"CLASSIFICATION_TYPE":"U","NORAD_CAT_ID":48970,"ELEMENT_SET_NO":999,"REV_AT_EPOCH":21426,"BSTAR":0.00018338232,"MEAN_MOTION_DOT":8.3e-7,"MEAN_MOTION_DDOT":0},{"OBJECT_NAME":"ONEWEB-0253","OBJECT_ID":"2021-060E","EPOCH":"2025-12-06T11:54:47.708928","MEAN_MOTION":13.16596397,"ECCENTRICITY":0.0001923,"INCLINATION":87.9042,"RA_OF_ASC_NODE":267.1457,"ARG_OF_PERICENTER":72.4884,"MEAN_ANOMALY":287.6457,"EPHEMERIS_TYPE":0,"CLASSIFICATION_TYPE":"U","NORAD_CAT_ID":48971,"ELEMENT_SET_NO":999,"REV_AT_EPOCH":21423,"BSTAR":0.00013817275,"MEAN_MOTION_DOT":6.6e-7,"MEAN_MOTION_DDOT":0},{"OBJECT_NAME":"ONEWEB-0254","OBJECT_ID":"2021-060F","EPOCH":"2025-12-06T13:57:54.352512","MEAN_MOTION":13.16596654,"ECCENTRICITY":0.00020318,"INCLINATION":87.9049,"RA_OF_ASC_NODE":267.1199,"ARG_OF_PERICENTER":66.8826,"MEAN_ANOMALY":293.2519,"EPHEMERIS_TYPE":0,"CLASSIFICATION_TYPE":"U","NORAD_CAT_ID":48972,"ELEMENT_SET_NO":999,"REV_AT_EPOCH":21424,"BSTAR":-3.606979e-5,"MEAN_MOTION_DOT":-1.0e-8,"MEAN_MOTION_DDOT":0},{"OBJECT_NAME":"ONEWEB-0255","OBJECT_ID":"2021-060G","EPOCH":"2025-12-06T13:03:10.793952","MEAN_MOTION":13.16594335,"ECCENTRICITY":0.00018884,"INCLINATION":87.9037,"RA_OF_ASC_NODE":267.1442,"ARG_OF_PERICENTER":68.9754,"MEAN_ANOMALY":291.1579,"EPHEMERIS_TYPE":0,"CLASSIFICATION_TYPE":"U","NORAD_CAT_ID":48973,"ELEMENT_SET_NO":999,"REV_AT_EPOCH":21431,"BSTAR":0.00029073226,"MEAN_MOTION_DOT":1.24e-6,"MEAN_MOTION_DDOT":0},{"OBJECT_NAME":"ONEWEB-0256","OBJECT_ID":"2021-060H","EPOCH":"2025-12-06T11:51:23.324544","MEAN_MOTION":13.1659494,"ECCENTRICITY":0.0001714,"INCLINATION":87.9029,"RA_OF_ASC_NODE":267.1626,"ARG_OF_PERICENTER":78.3092,"MEAN_ANOMALY":281.8231,"EPHEMERIS_TYPE":0,"CLASSIFICATION_TYPE":"U","NORAD_CAT_ID":48974,"ELEMENT_SET_NO":999,"REV_AT_EPOCH":21427,"BSTAR":0.00026213054,"MEAN_MOTION_DOT":1.13e-6,"MEAN_MOTION_DDOT":0},{"OBJECT_NAME":"ONEWEB-0257","OBJECT_ID":"2021-060J","EPOCH":"2025-12-06T14:27:33.071040","MEAN_MOTION":13.16594895,"ECCENTRICITY":0.00019482,"INCLINATION":87.9043,"RA_OF_ASC_NODE":267.1189,"ARG_OF_PERICENTER":74.3219,"MEAN_ANOMALY":285.8127,"EPHEMERIS_TYPE":0,"CLASSIFICATION_TYPE":"U","NORAD_CAT_ID":48975,"ELEMENT_SET_NO":999,"REV_AT_EPOCH":21424,"BSTAR":-0.0001924212,"MEAN_MOTION_DOT":-6.1e-7,"MEAN_MOTION_DDOT":0},{"OBJECT_NAME":"ONEWEB-0258","OBJECT_ID":"2021-060K","EPOCH":"2025-12-06T12:40:23.972736","MEAN_MOTION":13.16594539,"ECCENTRICITY":0.00016771,"INCLINATION":87.9039,"RA_OF_ASC_NODE":267.1493,"ARG_OF_PERICENTER":71.788,"MEAN_ANOMALY":288.3434,"EPHEMERIS_TYPE":0,"CLASSIFICATION_TYPE":"U","NORAD_CAT_ID":48976,"ELEMENT_SET_NO":999,"REV_AT_EPOCH":21424,"BSTAR":1.8942832e-5,"MEAN_MOTION_DOT":2.0e-7,"MEAN_MOTION_DDOT":0},{"OBJECT_NAME":"ONEWEB-0259","OBJECT_ID":"2021-060L","EPOCH":"2025-12-06T12:31:16.621824","MEAN_MOTION":13.16594279,"ECCENTRICITY":0.00018964,"INCLINATION":87.9043,"RA_OF_ASC_NODE":267.1441,"ARG_OF_PERICENTER":70.681,"MEAN_ANOMALY":289.4526,"EPHEMERIS_TYPE":0,"CLASSIFICATION_TYPE":"U","NORAD_CAT_ID":48977,"ELEMENT_SET_NO":999,"REV_AT_EPOCH":21427,"BSTAR":-3.328652e-6,"MEAN_MOTION_DOT":1.2e-7,"MEAN_MOTION_DDOT":0},{"OBJECT_NAME":"ONEWEB-0260","OBJECT_ID":"2021-060M","EPOCH":"2025-12-06T12:18:44.682624","MEAN_MOTION":13.16594553,"ECCENTRICITY":0.0001884,"INCLINATION":87.9033,"RA_OF_ASC_NODE":267.1603,"ARG_OF_PERICENTER":87.2642,"MEAN_ANOMALY":272.8705,"EPHEMERIS_TYPE":0,"CLASSIFICATION_TYPE":"U","NORAD_CAT_ID":48978,"ELEMENT_SET_NO":999,"REV_AT_EPOCH":21425,"BSTAR":0.00018137582,"MEAN_MOTION_DOT":8.2e-7,"MEAN_MOTION_DDOT":0},{"OBJECT_NAME":"ONEWEB-0261","OBJECT_ID":"2021-060N","EPOCH":"2025-12-06T13:24:50.704416","MEAN_MOTION":13.16592825,"ECCENTRICITY":0.00021763,"INCLINATION":87.9032,"RA_OF_ASC_NODE":267.1532,"ARG_OF_PERICENTER":73.6276,"MEAN_ANOMALY":286.5094,"EPHEMERIS_TYPE":0,"CLASSIFICATION_TYPE":"U","NORAD_CAT_ID":48979,"ELEMENT_SET_NO":999,"REV_AT_EPOCH":21431,"BSTAR":7.6725632e-5,"MEAN_MOTION_DOT":4.2e-7,"MEAN_MOTION_DDOT":0}]
