ONEWEB-0248             
1 48798U 21045AH  25340.61135562 -.00000041  00000+0 -14224-3 0  9993
2 48798  87.8995 297.6059 0002195  65.8508 294.2852 13.15549564219097
ONEWEB-0225             
1 48799U 21045AJ  25340.63354320  .00000127  00000+0  30311-3 0  9999
2 48799  87.8983 297.6261 0002369  73.6386 286.5005 13.15549773219102
ONEWEB-0215             
1 48800U 21045AK  25340.60343737  .00000013  00000+0  12150-5 0  9996
2 48800  87.9001 297.5921 0002413  69.3196 290.8193 13.15550096218970
ONEWEB-0216             
1 48801U 21045AL  25340.61294790 -.00000008  00000+0 -55128-4 0  9999
2 48801  87.8984 297.6219 0001995  84.3696 275.7661 13.15548382218985
ONEWEB-0239             
1 48802U 21045AM  25340.61769303 -.00000023  00000+0 -96013-4 0  9992
2 48802  87.8983 297.6355 0002346  62.5386 297.5983 13.15549794219024
ONEWEB-0249             
1 48967U 21060A   25340.55180391  .00000110  00000+0  25533-3 0  9991
2 48967  87.9038 267.1369 0001858  72.3990 287.7343 13.16594988214260
ONEWEB-0250             
1 48968U 21060B   25340.56195822  .00000039  00000+0  59028-4 0  9995
2 48968  87.9040 265.5212 0001668  38.5451 321.5804 13.25819549214697
ONEWEB-0252             
1 48970U 21060D   25340.20347081  .00000083  00000+0  18338-3 0  9992
2 48970  87.9040 267.1996 0001927  81.1259 279.0090 13.16592798214266
ONEWEB-0253             
1 48971U 21060E   25340.49638552  .00000066  00000+0  13817-3 0  9998
2 48971  87.9042 267.1457 0001923  72.4884 287.6457 13.16596397214232
ONEWEB-0254             
1 48972U 21060F   25340.58187908 -.00000001  00000+0 -36070-4 0  9991
2 48972  87.9049 267.1199 0002031  66.8826 293.2519 13.16596654214246
ONEWEB-0255             
1 48973U 21060G   25340.54387493  .00000124  00000+0  29073-3 0  9997
2 48973  87.9037 267.1442 0001888  68.9754 291.1579 13.16594335214312
ONEWEB-0256             
1 48974U 21060H   25340.49401996  .00000113  00000+0  26213-3 0  9998
2 48974  87.9029 267.1626 0001714  78.3092 281.8231 13.16594940214274
ONEWEB-0257             
1 48975U 21060J   25340.60246610 -.00000061  00000+0 -19242-3 0  9990
2 48975  87.9043 267.1189 0001948  74.3219 285.8127 13.16594895214245
ONEWEB-0258             
1 48976U 21060K   25340.52805524  .00000020  00000+0  18943-4 0  9998
2 48976  87.9039 267.1493 0001677  71.7880 288.3434 13.16594539214247
ONEWEB-0259             
1 48977U 21060L   25340.52172016  .00000012  00000+0 -33287-5 0  9993
2 48977  87.9043 267.1441 0001896  70.6810 289.4526 13.16594279214278
ONEWEB-0260             
1 48978U 21060M   25340.51301716  .00000082  00000+0  18138-3 0  9996
2 48978  87.9033 267.1603 0001884  87.2642 272.8705 13.16594553214250
ONEWEB-0261             
1 48979U 21060N   25340.55892019  .00000042  00000+0  76726-4 0  9996
2 48979  87.9032 267.1532 0002176  73.6276 286.5094 13.16592825214318
